ONEWEB-0415             
1 51624U 22012C   25354.25677550 -.00000494  00000+0 -14508-2 0  9999
2 51624  87.8806  71.9393 0001412 100.7936 259.3351 13.10374374185851
ONEWEB-0416             
1 51625U 22012D   25354.49746398 -.00000013  00000+0 -72491-4 0  9997
2 51625  87.8808  71.9120 0001321 112.6949 247.4318 13.10375429185928
ONEWEB-0422             
1 51626U 22012E   25354.39773593  .00000051  00000+0  98546-4 0  9993
2 51626  87.9111  41.3959 0002182  82.2893 277.8486 13.17648924190260
ONEWEB-0423             
1 51627U 22012F   25354.08723840  .00000068  00000+0  14322-3 0  9997
2 51627  87.9111  41.4677 0001907  97.8098 262.3250 13.17647895190110
ONEWEB-0425             
1 51628U 22012G   25354.50743466  .00000443  00000+0  12329-2 0  9992
2 51628  87.8811  71.8819 0001938 113.2262 246.9069 13.10376155185922
ONEWEB-0428             
1 51629U 22012H   25354.18207263 -.00000478  00000+0 -14046-2 0  9995
2 51629  87.8810  71.9650 0001772 102.4254 257.7072 13.10374342185844
ONEWEB-0431             
1 51630U 22012J   25354.22841610  .00000241  00000+0  65504-3 0  9994
2 51630  87.8812  71.9359 0001262  85.2884 274.8388 13.10369977185900
ONEWEB-0434             
1 51631U 22012K   25354.51089343  .00000257  00000+0  70075-3 0  9990
2 51631  87.8804  71.9149 0002207 118.1617 241.9733 13.10375386185921
